[{"OBJECT_NAME":"STARLINK-32869","OBJECT_ID":"2025-022F","EPOCH":"2026-03-23T05:16:51.023136","MEAN_MOTION":15.301995,"ECCENTRICITY":0.00013111,"INCLINATION":53.1611,"RA_OF_ASC_NODE":66.6102,"ARG_OF_PERICENTER":97.8062,"MEAN_ANOMALY":262.3088,"EPHEMERIS_TYPE":0,"CLASSIFICATION_TYPE":"U","NORAD_CAT_ID":62859,"ELEMENT_SET_NO":999,"REV_AT_EPOCH":6397,"BSTAR":0.0010669242,"MEAN_MOTION_DOT":0.00031373,"MEAN_MOTION_DDOT":0},{"OBJECT_NAME":"STARLINK-32831","OBJECT_ID":"2025-022G","EPOCH":"2026-03-23T05:29:00.247776","MEAN_MOTION":15.30190085,"ECCENTRICITY":0.00011837,"INCLINATION":53.1606,"RA_OF_ASC_NODE":66.6796,"ARG_OF_PERICENTER":81.0447,"MEAN_ANOMALY":279.0688,"EPHEMERIS_TYPE":0,"CLASSIFICATION_TYPE":"U","NORAD_CAT_ID":62860,"ELEMENT_SET_NO":999,"REV_AT_EPOCH":6396,"BSTAR":0.00097381769,"MEAN_MOTION_DOT":0.00028585,"MEAN_MOTION_DDOT":0},{"OBJECT_NAME":"STARLINK-32859","OBJECT_ID":"2025-022H","EPOCH":"2026-03-23T04:43:33.707424","MEAN_MOTION":15.30314638,"ECCENTRICITY":0.00027653,"INCLINATION":53.1613,"RA_OF_ASC_NODE":67.189,"ARG_OF_PERICENTER":130.0755,"MEAN_ANOMALY":230.0489,"EPHEMERIS_TYPE":0,"CLASSIFICATION_TYPE":"U","NORAD_CAT_ID":62861,"ELEMENT_SET_NO":999,"REV_AT_EPOCH":6396,"BSTAR":0.0019175946,"MEAN_MOTION_DOT":0.00057078,"MEAN_MOTION_DDOT":0},{"OBJECT_NAME":"STARLINK-32864","OBJECT_ID":"2025-022J","EPOCH":"2026-03-23T03:51:54.917856","MEAN_MOTION":15.30204664,"ECCENTRICITY":0.00013602,"INCLINATION":53.1605,"RA_OF_ASC_NODE":66.9561,"ARG_OF_PERICENTER":93.5723,"MEAN_ANOMALY":266.5434,"EPHEMERIS_TYPE":0,"CLASSIFICATION_TYPE":"U","NORAD_CAT_ID":62862,"ELEMENT_SET_NO":999,"REV_AT_EPOCH":6396,"BSTAR":0.001182297,"MEAN_MOTION_DOT":0.00034826,"MEAN_MOTION_DDOT":0},{"OBJECT_NAME":"STARLINK-32808","OBJECT_ID":"2025-022K","EPOCH":"2026-03-23T05:57:53.347104","MEAN_MOTION":15.30184601,"ECCENTRICITY":0.00011153,"INCLINATION":53.1592,"RA_OF_ASC_NODE":66.8021,"ARG_OF_PERICENTER":81.9521,"MEAN_ANOMALY":278.1607,"EPHEMERIS_TYPE":0,"CLASSIFICATION_TYPE":"U","NORAD_CAT_ID":62863,"ELEMENT_SET_NO":999,"REV_AT_EPOCH":6397,"BSTAR":0.00080499992,"MEAN_MOTION_DOT":0.00023547,"MEAN_MOTION_DDOT":0},{"OBJECT_NAME":"STARLINK-32862","OBJECT_ID":"2025-022L","EPOCH":"2026-03-23T06:05:28.763232","MEAN_MOTION":15.30197433,"ECCENTRICITY":0.00013544,"INCLINATION":53.1592,"RA_OF_ASC_NODE":66.8371,"ARG_OF_PERICENTER":83.0342,"MEAN_ANOMALY":277.0813,"EPHEMERIS_TYPE":0,"CLASSIFICATION_TYPE":"U","NORAD_CAT_ID":62864,"ELEMENT_SET_NO":999,"REV_AT_EPOCH":6397,"BSTAR":0.00087135423,"MEAN_MOTION_DOT":0.00025535,"MEAN_MOTION_DDOT":0},{"OBJECT_NAME":"STARLINK-32841","OBJECT_ID":"2025-022M","EPOCH":"2026-03-23T05:36:35.578368","MEAN_MOTION":15.30204965,"ECCENTRICITY":0.00011955,"INCLINATION":53.1588,"RA_OF_ASC_NODE":66.7138,"ARG_OF_PERICENTER":79.3596,"MEAN_ANOMALY":280.754,"EPHEMERIS_TYPE":0,"CLASSIFICATION_TYPE":"U","NORAD_CAT_ID":62865,"ELEMENT_SET_NO":999,"REV_AT_EPOCH":6396,"BSTAR":0.00090383213,"MEAN_MOTION_DOT":0.00026509,"MEAN_MOTION_DDOT":0},{"OBJECT_NAME":"STARLINK-32695","OBJECT_ID":"2025-022N","EPOCH":"2026-03-23T04:55:34.776768","MEAN_MOTION":15.30194558,"ECCENTRICITY":0.00011959,"INCLINATION":53.1609,"RA_OF_ASC_NODE":66.5321,"ARG_OF_PERICENTER":100.7499,"MEAN_ANOMALY":259.3637,"EPHEMERIS_TYPE":0,"CLASSIFICATION_TYPE":"U","NORAD_CAT_ID":62866,"ELEMENT_SET_NO":999,"REV_AT_EPOCH":6397,"BSTAR":0.00098745217,"MEAN_MOTION_DOT":0.00028996,"MEAN_MOTION_DDOT":0},{"OBJECT_NAME":"STARLINK-32846","OBJECT_ID":"2025-022P","EPOCH":"2026-03-23T05:22:55.759872","MEAN_MOTION":15.30207954,"ECCENTRICITY":0.00013131,"INCLINATION":53.1611,"RA_OF_ASC_NODE":66.6372,"ARG_OF_PERICENTER":84.0651,"MEAN_ANOMALY":276.0499,"EPHEMERIS_TYPE":0,"CLASSIFICATION_TYPE":"U","NORAD_CAT_ID":62867,"ELEMENT_SET_NO":999,"REV_AT_EPOCH":6397,"BSTAR":0.0012045022,"MEAN_MOTION_DOT":0.00035494,"MEAN_MOTION_DDOT":0},{"OBJECT_NAME":"STARLINK-32822","OBJECT_ID":"2025-022Q","EPOCH":"2026-03-23T05:41:10.599072","MEAN_MOTION":15.30179645,"ECCENTRICITY":0.00014053,"INCLINATION":53.1592,"RA_OF_ASC_NODE":66.7292,"ARG_OF_PERICENTER":81.3862,"MEAN_ANOMALY":278.7298,"EPHEMERIS_TYPE":0,"CLASSIFICATION_TYPE":"U","NORAD_CAT_ID":62868,"ELEMENT_SET_NO":999,"REV_AT_EPOCH":6397,"BSTAR":0.00092714719,"MEAN_MOTION_DOT":0.00027184,"MEAN_MOTION_DDOT":0},{"OBJECT_NAME":"STARLINK-32813","OBJECT_ID":"2025-022R","EPOCH":"2026-03-23T06:02:26.527488","MEAN_MOTION":15.3019296,"ECCENTRICITY":0.00011495,"INCLINATION":53.1588,"RA_OF_ASC_NODE":66.8242,"ARG_OF_PERICENTER":78.7392,"MEAN_ANOMALY":281.3738,"EPHEMERIS_TYPE":0,"CLASSIFICATION_TYPE":"U","NORAD_CAT_ID":62869,"ELEMENT_SET_NO":999,"REV_AT_EPOCH":6397,"BSTAR":0.0012571267,"MEAN_MOTION_DOT":0.00037051,"MEAN_MOTION_DDOT":0},{"OBJECT_NAME":"STARLINK-32861","OBJECT_ID":"2025-022S","EPOCH":"2026-03-23T04:58:37.157664","MEAN_MOTION":15.30196245,"ECCENTRICITY":0.00013271,"INCLINATION":53.1624,"RA_OF_ASC_NODE":66.5479,"ARG_OF_PERICENTER":92.4657,"MEAN_ANOMALY":267.6495,"EPHEMERIS_TYPE":0,"CLASSIFICATION_TYPE":"U","NORAD_CAT_ID":62870,"ELEMENT_SET_NO":999,"REV_AT_EPOCH":6397,"BSTAR":0.0010185784,"MEAN_MOTION_DOT":0.00029926,"MEAN_MOTION_DDOT":0},{"OBJECT_NAME":"STARLINK-32814","OBJECT_ID":"2025-022T","EPOCH":"2026-03-23T05:44:13.053408","MEAN_MOTION":15.30227196,"ECCENTRICITY":0.00013112,"INCLINATION":53.1605,"RA_OF_ASC_NODE":66.7511,"ARG_OF_PERICENTER":114.9775,"MEAN_ANOMALY":245.1362,"EPHEMERIS_TYPE":0,"CLASSIFICATION_TYPE":"U","NORAD_CAT_ID":62871,"ELEMENT_SET_NO":999,"REV_AT_EPOCH":6397,"BSTAR":0.0010125819,"MEAN_MOTION_DOT":0.00029776,"MEAN_MOTION_DDOT":0},{"OBJECT_NAME":"STARLINK-32849","OBJECT_ID":"2025-022U","EPOCH":"2026-03-23T04:42:03.403008","MEAN_MOTION":15.30203531,"ECCENTRICITY":0.00014136,"INCLINATION":53.1605,"RA_OF_ASC_NODE":67.1874,"ARG_OF_PERICENTER":154.9838,"MEAN_ANOMALY":205.1232,"EPHEMERIS_TYPE":0,"CLASSIFICATION_TYPE":"U","NORAD_CAT_ID":62872,"ELEMENT_SET_NO":999,"REV_AT_EPOCH":6396,"BSTAR":0.00096166272,"MEAN_MOTION_DOT":0.00028234,"MEAN_MOTION_DDOT":0},{"OBJECT_NAME":"STARLINK-32833","OBJECT_ID":"2025-022V","EPOCH":"2026-03-23T05:24:26.088480","MEAN_MOTION":15.30207419,"ECCENTRICITY":0.00015657,"INCLINATION":53.1607,"RA_OF_ASC_NODE":66.6599,"ARG_OF_PERICENTER":87.5708,"MEAN_ANOMALY":272.5472,"EPHEMERIS_TYPE":0,"CLASSIFICATION_TYPE":"U","NORAD_CAT_ID":62873,"ELEMENT_SET_NO":999,"REV_AT_EPOCH":6397,"BSTAR":0.00094068683,"MEAN_MOTION_DOT":0.00027611,"MEAN_MOTION_DDOT":0},{"OBJECT_NAME":"STARLINK-32793","OBJECT_ID":"2025-022W","EPOCH":"2026-03-23T05:51:48.307968","MEAN_MOTION":15.301945,"ECCENTRICITY":0.00010521,"INCLINATION":53.1593,"RA_OF_ASC_NODE":66.7804,"ARG_OF_PERICENTER":77.8231,"MEAN_ANOMALY":282.2888,"EPHEMERIS_TYPE":0,"CLASSIFICATION_TYPE":"U","NORAD_CAT_ID":62874,"ELEMENT_SET_NO":999,"REV_AT_EPOCH":6397,"BSTAR":0.00084087451,"MEAN_MOTION_DOT":0.00024623,"MEAN_MOTION_DDOT":0},{"OBJECT_NAME":"STARLINK-32834","OBJECT_ID":"2025-022X","EPOCH":"2026-03-23T05:27:29.293632","MEAN_MOTION":15.30199685,"ECCENTRICITY":0.00018517,"INCLINATION":53.1605,"RA_OF_ASC_NODE":66.6719,"ARG_OF_PERICENTER":91.945,"MEAN_ANOMALY":268.1763,"EPHEMERIS_TYPE":0,"CLASSIFICATION_TYPE":"U","NORAD_CAT_ID":62875,"ELEMENT_SET_NO":999,"REV_AT_EPOCH":6397,"BSTAR":0.0011559186,"MEAN_MOTION_DOT":0.00034033,"MEAN_MOTION_DDOT":0},{"OBJECT_NAME":"STARLINK-11371 [DTC]","OBJECT_ID":"2025-024A","EPOCH":"2026-03-23T04:06:51.843168","MEAN_MOTION":15.70939471,"ECCENTRICITY":5.461e-5,"INCLINATION":42.9963,"RA_OF_ASC_NODE":100.4883,"ARG_OF_PERICENTER":139.2836,"MEAN_ANOMALY":220.8073,"EPHEMERIS_TYPE":0,"CLASSIFICATION_TYPE":"U","NORAD_CAT_ID":62879,"ELEMENT_SET_NO":999,"REV_AT_EPOCH":6558,"BSTAR":0.0018805237,"MEAN_MOTION_DOT":0.00249272,"MEAN_MOTION_DDOT":0},{"OBJECT_NAME":"STARLINK-11352 [DTC]","OBJECT_ID":"2025-024B","EPOCH":"2026-03-22T18:04:02.055648","MEAN_MOTION":15.71007466,"ECCENTRICITY":0.00015853,"INCLINATION":43.0014,"RA_OF_ASC_NODE":102.4883,"ARG_OF_PERICENTER":319.642,"MEAN_ANOMALY":40.433,"EPHEMERIS_TYPE":0,"CLASSIFICATION_TYPE":"U","NORAD_CAT_ID":62880,"ELEMENT_SET_NO":999,"REV_AT_EPOCH":6552,"BSTAR":0.0023691914,"MEAN_MOTION_DOT":0.00317687,"MEAN_MOTION_DDOT":0},{"OBJECT_NAME":"STARLINK-11382 [DTC]","OBJECT_ID":"2025-024C","EPOCH":"2026-03-22T18:34:36.082272","MEAN_MOTION":15.70848071,"ECCENTRICITY":0.00019048,"INCLINATION":43.0011,"RA_OF_ASC_NODE":102.6598,"ARG_OF_PERICENTER":270.6958,"MEAN_ANOMALY":89.3691,"EPHEMERIS_TYPE":0,"CLASSIFICATION_TYPE":"U","NORAD_CAT_ID":62881,"ELEMENT_SET_NO":999,"REV_AT_EPOCH":6552,"BSTAR":0.001594259,"MEAN_MOTION_DOT":0.00209426,"MEAN_MOTION_DDOT":0},{"OBJECT_NAME":"STARLINK-11432 [DTC]","OBJECT_ID":"2025-024D","EPOCH":"2026-03-22T11:12:04.778208","MEAN_MOTION":15.70757499,"ECCENTRICITY":0.00017952,"INCLINATION":43,"RA_OF_ASC_NODE":104.6617,"ARG_OF_PERICENTER":260.8631,"MEAN_ANOMALY":99.2033,"EPHEMERIS_TYPE":0,"CLASSIFICATION_TYPE":"U","NORAD_CAT_ID":62882,"ELEMENT_SET_NO":999,"REV_AT_EPOCH":6547,"BSTAR":0.0010161831,"MEAN_MOTION_DOT":0.00131569,"MEAN_MOTION_DDOT":0},{"OBJECT_NAME":"STARLINK-11419 [DTC]","OBJECT_ID":"2025-024E","EPOCH":"2026-03-22T18:26:57.838272","MEAN_MOTION":15.70890536,"ECCENTRICITY":0.00012863,"INCLINATION":43.0004,"RA_OF_ASC_NODE":102.6157,"ARG_OF_PERICENTER":273.6168,"MEAN_ANOMALY":86.4553,"EPHEMERIS_TYPE":0,"CLASSIFICATION_TYPE":"U","NORAD_CAT_ID":62883,"ELEMENT_SET_NO":999,"REV_AT_EPOCH":6552,"BSTAR":0.0018894739,"MEAN_MOTION_DOT":0.00249959,"MEAN_MOTION_DDOT":0},{"OBJECT_NAME":"STARLINK-11437 [DTC]","OBJECT_ID":"2025-024F","EPOCH":"2026-03-22T18:42:15.605856","MEAN_MOTION":15.7081707,"ECCENTRICITY":6.598e-5,"INCLINATION":42.9987,"RA_OF_ASC_NODE":102.7001,"ARG_OF_PERICENTER":209.1892,"MEAN_ANOMALY":150.8938,"EPHEMERIS_TYPE":0,"CLASSIFICATION_TYPE":"U","NORAD_CAT_ID":62884,"ELEMENT_SET_NO":999,"REV_AT_EPOCH":6552,"BSTAR":0.0015317335,"MEAN_MOTION_DOT":0.0020072,"MEAN_MOTION_DDOT":0}]
